{"spkid": "50293854", "covariance": {"elements": [{"label": "e", "units": null, "title": "eccentricity", "value": ".3654222622515779", "sigma": 2.44442134693378e-05, "name": "e"}, {"sigma": 2.31255143839717e-05, "name": "q", "units": "au", "value": ".6014544822225623", "title": "perihelion distance", "label": "q"}, {"sigma": 0.00184598949362106, "name": "tp", "title": "time of perihelion passage", "value": "2457777.174632043431", "units": "TDB", "label": "tp"}, {"title": "longitude of the ascending node", "value": "195.0978453897917", "units": "deg", "sigma": 5.89893190821784e-05, "name": "om", "label": "node"}, {"label": "peri", "units": "deg", "title": "argument of perihelion", "value": "304.8255104434716", "sigma": 0.000834441138081316, "name": "w"}, {"label": "i", "sigma": 0.000538303607562382, "name": "i", "units": "deg", "value": "4.792124016960248", "title": "inclination"}], "data": [["5.97519572134555E-10", "-5.652850097753404E-10", "-4.51213275685545E-8", "1.257552452144524E-9", "2.038360359419696E-8", "1.303794974404047E-8"], ["-5.652850097753404E-10", "5.347894155232805E-10", "4.26871568227732E-8", "-1.189692784121787E-9", "-1.928397900191075E-8", "-1.233454063943604E-8"], ["-4.51213275685545E-8", "4.26871568227732E-8", "3.407677210559355E-6", "-9.489361274402671E-8", "-1.539028689262311E-6", "-9.838962779969122E-7"], ["1.257552452144524E-9", "-1.189692784121787E-9", "-9.489361274402671E-8", "3.479739765779052E-9", "4.213728580565644E-8", "2.931461017946533E-8"], ["2.038360359419696E-8", "-1.928397900191075E-8", "-1.539028689262311E-6", "4.213728580565644E-8", "6.962920129224416E-7", "4.434548776528934E-7"], ["1.303794974404047E-8", "-1.233454063943604E-8", "-9.838962779969122E-7", "2.931461017946533E-8", "4.434548776528934E-7", "2.897707739146745E-7"]], "labels": ["e", "q", "tp", "node", "peri", "i"], "epoch": "2457905.5"}, "elements": [{"name": "e", "sigma": "2.4496E-5", "title": "eccentricity", "value": ".3652783971590219", "units": null, "label": "e"}, {"label": "a", "sigma": "1.4941E-7", "name": "a", "value": ".9490602366190697", "title": "semi-major axis", "units": "au"}, {"label": "q", "title": "perihelion distance", "value": ".6023890345794939", "units": "au", "name": "q", "sigma": "2.3343E-5"}, {"units": "deg", "value": "4.74996454708954", "title": "inclination; angle with respect to x-y ecliptic plane", "name": "i", "sigma": ".00054504", "label": "i"}, {"label": "node", "title": "longitude of the ascending node", "value": "194.9901516479894", "units": "deg", "name": "om", "sigma": "7.6265E-5"}, {"label": "peri", "units": "deg", "title": "argument of perihelion", "value": "304.6920071435571", "name": "w", "sigma": ".00087985"}, {"name": "ma", "sigma": ".0028081", "title": "mean anomaly", "value": "49.37941856345783", "units": "deg", "label": "M"}, {"sigma": ".0026233", "name": "tp", "value": "2461154.178505297510", "title": "time of perihelion passage", "units": "TDB", "label": "tp"}, {"units": "d", "title": "sidereal orbital period", "value": "337.7062464084333", "name": "per", "sigma": "7.9747E-5", "label": "period"}, {"units": "deg/d", "title": "mean motion", "value": "1.066015224262698", "name": "n", "sigma": "2.5173E-7", "label": "n"}, {"name": "ad", "sigma": "2.0399E-7", "title": "aphelion distance", "value": "1.295731438658646", "units": "au", "label": "Q"}], "epoch": "2461200.5"}